<?xml version="1.0" encoding="UTF-8"?>
<kml xmlns="http://www.opengis.net/kml/2.2" xmlns:gx="http://www.google.com/kml/ext/2.2" xmlns:kml="http://www.opengis.net/kml/2.2" xmlns:atom="http://www.w3.org/2005/Atom">
<Document>
	<name>amol shubhashrao kadam.kml</name>
	<StyleMap id="__managed_style_0E336454EC3C1E7818A4">
		<Pair>
			<key>normal</key>
			<styleUrl>#__managed_style_14828E691E3C1E7818A4</styleUrl>
		</Pair>
		<Pair>
			<key>highlight</key>
			<styleUrl>#__managed_style_2D3B63DA7C3C1E7818A4</styleUrl>
		</Pair>
	</StyleMap>
	<gx:CascadingStyle kml:id="__managed_style_14828E691E3C1E7818A4">
		<Style>
			<IconStyle>
				<Icon>
					<href>https://earth.google.com/earth/document/icon?color=1976d2&amp;id=2000&amp;scale=4</href>
				</Icon>
				<hotSpot x="64" y="128" xunits="pixels" yunits="insetPixels"/>
			</IconStyle>
			<BalloonStyle>
				<displayMode>hide</displayMode>
			</BalloonStyle>
			<LineStyle>
				<color>ff2dc0fb</color>
				<width>0.3568</width>
			</LineStyle>
			<PolyStyle>
				<color>40ffffff</color>
			</PolyStyle>
		</Style>
	</gx:CascadingStyle>
	<gx:CascadingStyle kml:id="__managed_style_2D3B63DA7C3C1E7818A4">
		<Style>
			<IconStyle>
				<scale>1.2</scale>
				<Icon>
					<href>https://earth.google.com/earth/document/icon?color=1976d2&amp;id=2000&amp;scale=4</href>
				</Icon>
				<hotSpot x="64" y="128" xunits="pixels" yunits="insetPixels"/>
			</IconStyle>
			<BalloonStyle>
				<displayMode>hide</displayMode>
			</BalloonStyle>
			<LineStyle>
				<color>ff2dc0fb</color>
				<width>0.5352</width>
			</LineStyle>
			<PolyStyle>
				<color>40ffffff</color>
			</PolyStyle>
		</Style>
	</gx:CascadingStyle>
	<Placemark id="5893B8EAC9000009">
		<name>amol shubhashrao kadam</name>
		<LookAt>
			<longitude>77.1809930794019</longitude>
			<latitude>19.18711080082279</latitude>
			<altitude>418.9581134839407</altitude>
			<heading>193.6676606410333</heading>
			<tilt>0</tilt>
			<gx:fovy>35</gx:fovy>
			<range>840.8179439422386</range>
			<altitudeMode>absolute</altitudeMode>
		</LookAt>
		<styleUrl>#__managed_style_0E336454EC3C1E7818A4</styleUrl>
		<Polygon>
			<outerBoundaryIs>
				<LinearRing>
					<coordinates>
						77.18082389020505,19.1865212876576,0 77.18185427365853,19.18639386638108,0 77.18186527009894,19.18701769244963,0 77.18081833661842,19.18713769123967,0 77.18082389020505,19.1865212876576,0 
					</coordinates>
				</LinearRing>
			</outerBoundaryIs>
		</Polygon>
		<atom:link rel="app" href="https://www.google.com/earth/about/versions/#earth-pro" title="Google Earth Pro 7.3.7.1155"></atom:link>
	</Placemark>
</Document>
</kml>
