<?xml version="1.0" encoding="UTF-8"?>
<kml xmlns="http://www.opengis.net/kml/2.2" xmlns:gx="http://www.google.com/kml/ext/2.2" xmlns:kml="http://www.opengis.net/kml/2.2" xmlns:atom="http://www.w3.org/2005/Atom">
<Document>
	<name>navnath eknath meithe.kml</name>
	<StyleMap id="__managed_style_0E336454EC3C1E7818A4">
		<Pair>
			<key>normal</key>
			<styleUrl>#__managed_style_14828E691E3C1E7818A4</styleUrl>
		</Pair>
		<Pair>
			<key>highlight</key>
			<styleUrl>#__managed_style_2D3B63DA7C3C1E7818A4</styleUrl>
		</Pair>
	</StyleMap>
	<gx:CascadingStyle kml:id="__managed_style_14828E691E3C1E7818A4">
		<Style>
			<IconStyle>
				<Icon>
					<href>https://earth.google.com/earth/document/icon?color=1976d2&amp;id=2000&amp;scale=4</href>
				</Icon>
				<hotSpot x="64" y="128" xunits="pixels" yunits="insetPixels"/>
			</IconStyle>
			<BalloonStyle>
				<displayMode>hide</displayMode>
			</BalloonStyle>
			<LineStyle>
				<color>ff2dc0fb</color>
				<width>0.3568</width>
			</LineStyle>
			<PolyStyle>
				<color>40ffffff</color>
			</PolyStyle>
		</Style>
	</gx:CascadingStyle>
	<gx:CascadingStyle kml:id="__managed_style_2D3B63DA7C3C1E7818A4">
		<Style>
			<IconStyle>
				<scale>1.2</scale>
				<Icon>
					<href>https://earth.google.com/earth/document/icon?color=1976d2&amp;id=2000&amp;scale=4</href>
				</Icon>
				<hotSpot x="64" y="128" xunits="pixels" yunits="insetPixels"/>
			</IconStyle>
			<BalloonStyle>
				<displayMode>hide</displayMode>
			</BalloonStyle>
			<LineStyle>
				<color>ff2dc0fb</color>
				<width>0.5352</width>
			</LineStyle>
			<PolyStyle>
				<color>40ffffff</color>
			</PolyStyle>
		</Style>
	</gx:CascadingStyle>
	<Placemark id="5893B8EACB0000B6">
		<name>navnath eknath meithe</name>
		<LookAt>
			<longitude>77.19606312142081</longitude>
			<latitude>19.15111096763565</latitude>
			<altitude>401.658738404664</altitude>
			<heading>76.62747439554153</heading>
			<tilt>0</tilt>
			<gx:fovy>35</gx:fovy>
			<range>994.6314465734758</range>
			<altitudeMode>absolute</altitudeMode>
		</LookAt>
		<styleUrl>#__managed_style_0E336454EC3C1E7818A4</styleUrl>
		<Polygon>
			<outerBoundaryIs>
				<LinearRing>
					<coordinates>
						77.19662259162406,19.15133801555685,0 77.19646256003189,19.15025148479114,0 77.19704584723041,19.1502202230414,0 77.19719235712607,19.15132892327789,0 77.19662259162406,19.15133801555685,0 
					</coordinates>
				</LinearRing>
			</outerBoundaryIs>
		</Polygon>
		<atom:link rel="app" href="https://www.google.com/earth/about/versions/#earth-pro" title="Google Earth Pro 7.3.7.1155"></atom:link>
	</Placemark>
</Document>
</kml>
