<?xml version="1.0" encoding="UTF-8"?>
<kml xmlns="http://www.opengis.net/kml/2.2" xmlns:gx="http://www.google.com/kml/ext/2.2" xmlns:kml="http://www.opengis.net/kml/2.2" xmlns:atom="http://www.w3.org/2005/Atom">
<Document>
	<name>shubhashrao shamraoji kadam.kml</name>
	<StyleMap id="__managed_style_0E336454EC3C1E7818A4">
		<Pair>
			<key>normal</key>
			<styleUrl>#__managed_style_14828E691E3C1E7818A4</styleUrl>
		</Pair>
		<Pair>
			<key>highlight</key>
			<styleUrl>#__managed_style_2D3B63DA7C3C1E7818A4</styleUrl>
		</Pair>
	</StyleMap>
	<gx:CascadingStyle kml:id="__managed_style_14828E691E3C1E7818A4">
		<Style>
			<IconStyle>
				<Icon>
					<href>https://earth.google.com/earth/document/icon?color=1976d2&amp;id=2000&amp;scale=4</href>
				</Icon>
				<hotSpot x="64" y="128" xunits="pixels" yunits="insetPixels"/>
			</IconStyle>
			<BalloonStyle>
				<displayMode>hide</displayMode>
			</BalloonStyle>
			<LineStyle>
				<color>ff2dc0fb</color>
				<width>0.3568</width>
			</LineStyle>
			<PolyStyle>
				<color>40ffffff</color>
			</PolyStyle>
		</Style>
	</gx:CascadingStyle>
	<gx:CascadingStyle kml:id="__managed_style_2D3B63DA7C3C1E7818A4">
		<Style>
			<IconStyle>
				<scale>1.2</scale>
				<Icon>
					<href>https://earth.google.com/earth/document/icon?color=1976d2&amp;id=2000&amp;scale=4</href>
				</Icon>
				<hotSpot x="64" y="128" xunits="pixels" yunits="insetPixels"/>
			</IconStyle>
			<BalloonStyle>
				<displayMode>hide</displayMode>
			</BalloonStyle>
			<LineStyle>
				<color>ff2dc0fb</color>
				<width>0.5352</width>
			</LineStyle>
			<PolyStyle>
				<color>40ffffff</color>
			</PolyStyle>
		</Style>
	</gx:CascadingStyle>
	<Placemark id="5893B8EAC9000007">
		<name>shubhashrao shamraoji kadam</name>
		<LookAt>
			<longitude>77.18166878941338</longitude>
			<latitude>19.18956844775551</latitude>
			<altitude>420.0642981315303</altitude>
			<heading>2.582223121405092</heading>
			<tilt>0</tilt>
			<gx:fovy>35</gx:fovy>
			<range>877.7815794011985</range>
			<altitudeMode>absolute</altitudeMode>
		</LookAt>
		<styleUrl>#__managed_style_0E336454EC3C1E7818A4</styleUrl>
		<Polygon>
			<outerBoundaryIs>
				<LinearRing>
					<coordinates>
						77.18211641481517,19.18953471241419,0 77.18213605740053,19.19033386631595,0 77.18263187626411,19.19037615444469,0 77.1824952793397,19.19106265015207,0 77.18214163933747,19.1910905722148,0 77.18210711371532,19.19039920626675,0 77.18166218036339,19.19040337045496,0 77.18166037262409,19.1895869014905,0 77.18211641481517,19.18953471241419,0 
					</coordinates>
				</LinearRing>
			</outerBoundaryIs>
		</Polygon>
		<atom:link rel="app" href="https://www.google.com/earth/about/versions/#earth-pro" title="Google Earth Pro 7.3.7.1155"></atom:link>
	</Placemark>
</Document>
</kml>
