<?xml version="1.0" encoding="UTF-8"?>
<kml xmlns="http://www.opengis.net/kml/2.2" xmlns:gx="http://www.google.com/kml/ext/2.2" xmlns:kml="http://www.opengis.net/kml/2.2" xmlns:atom="http://www.w3.org/2005/Atom">
<Document>
	<name>surekha shubhashrao kadam.kml</name>
	<StyleMap id="__managed_style_0E336454EC3C1E7818A4">
		<Pair>
			<key>normal</key>
			<styleUrl>#__managed_style_14828E691E3C1E7818A4</styleUrl>
		</Pair>
		<Pair>
			<key>highlight</key>
			<styleUrl>#__managed_style_2D3B63DA7C3C1E7818A4</styleUrl>
		</Pair>
	</StyleMap>
	<gx:CascadingStyle kml:id="__managed_style_14828E691E3C1E7818A4">
		<Style>
			<IconStyle>
				<Icon>
					<href>https://earth.google.com/earth/document/icon?color=1976d2&amp;id=2000&amp;scale=4</href>
				</Icon>
				<hotSpot x="64" y="128" xunits="pixels" yunits="insetPixels"/>
			</IconStyle>
			<BalloonStyle>
				<displayMode>hide</displayMode>
			</BalloonStyle>
			<LineStyle>
				<color>ff2dc0fb</color>
				<width>0.3568</width>
			</LineStyle>
			<PolyStyle>
				<color>40ffffff</color>
			</PolyStyle>
		</Style>
	</gx:CascadingStyle>
	<gx:CascadingStyle kml:id="__managed_style_2D3B63DA7C3C1E7818A4">
		<Style>
			<IconStyle>
				<scale>1.2</scale>
				<Icon>
					<href>https://earth.google.com/earth/document/icon?color=1976d2&amp;id=2000&amp;scale=4</href>
				</Icon>
				<hotSpot x="64" y="128" xunits="pixels" yunits="insetPixels"/>
			</IconStyle>
			<BalloonStyle>
				<displayMode>hide</displayMode>
			</BalloonStyle>
			<LineStyle>
				<color>ff2dc0fb</color>
				<width>0.5352</width>
			</LineStyle>
			<PolyStyle>
				<color>40ffffff</color>
			</PolyStyle>
		</Style>
	</gx:CascadingStyle>
	<Placemark id="5893B8EAC9000008">
		<name>surekha shubhashrao kadam</name>
		<LookAt>
			<longitude>77.18138273371392</longitude>
			<latitude>19.18936789652665</latitude>
			<altitude>420.295934246109</altitude>
			<heading>60.10326642180365</heading>
			<tilt>0</tilt>
			<gx:fovy>35</gx:fovy>
			<range>949.1214885473892</range>
			<altitudeMode>absolute</altitudeMode>
		</LookAt>
		<styleUrl>#__managed_style_0E336454EC3C1E7818A4</styleUrl>
		<Polygon>
			<outerBoundaryIs>
				<LinearRing>
					<coordinates>
						77.18166384343989,19.18950377893033,0 77.18166616400197,19.1904171435142,0 77.18124796944008,19.19041057875324,0 77.18119844030474,19.18960825378368,0 77.18116125624616,19.18885929367068,0 77.18158264817103,19.18879059716029,0 77.18166384343989,19.18950377893033,0 
					</coordinates>
				</LinearRing>
			</outerBoundaryIs>
		</Polygon>
		<atom:link rel="app" href="https://www.google.com/earth/about/versions/#earth-pro" title="Google Earth Pro 7.3.7.1155"></atom:link>
	</Placemark>
</Document>
</kml>
